{
    "links": {
        "self": "http://www.neowsapp.com/rest/v1/neo/54048879?api_key=iIulBulltgU6a56xZRHN4H3l9WmuAYTsLGpBGhQ2"
    },
    "id": "54048879",
    "neo_reference_id": "54048879",
    "name": "(2020 OZ)",
    "designation": "2020 OZ",
    "nasa_jpl_url": "http://ssd.jpl.nasa.gov/sbdb.cgi?sstr=54048879",
    "absolute_magnitude_h": 25.698,
    "estimated_diameter": {
        "kilometers": {
            "estimated_diameter_min": 0.019273251,
            "estimated_diameter_max": 0.0430962993
        },
        "meters": {
            "estimated_diameter_min": 19.2732509667,
            "estimated_diameter_max": 43.0962993089
        },
        "miles": {
            "estimated_diameter_min": 0.0119758392,
            "estimated_diameter_max": 0.0267787906
        },
        "feet": {
            "estimated_diameter_min": 63.2324527015,
            "estimated_diameter_max": 141.3920626245
        }
    },
    "is_potentially_hazardous_asteroid": false,
    "close_approach_data": [
        {
            "close_approach_date": "2020-07-12",
            "close_approach_date_full": "2020-Jul-12 12:11",
            "epoch_date_close_approach": 1594555860000,
            "relative_velocity": {
                "kilometers_per_second": "12.0022789763",
                "kilometers_per_hour": "43208.2043148413",
                "miles_per_hour": "26847.8978421857"
            },
            "miss_distance": {
                "astronomical": "0.014630244",
                "lunar": "5.691164916",
                "kilometers": "2188653.33998028",
                "miles": "1359966.122996664"
            },
            "orbiting_body": "Earth"
        }
    ],
    "orbital_data": {
        "orbit_id": "4",
        "orbit_determination_date": "2020-08-10 06:08:25",
        "first_observation_date": "2020-07-13",
        "last_observation_date": "2020-07-29",
        "data_arc_in_days": 16,
        "observations_used": 27,
        "orbit_uncertainty": "8",
        "minimum_orbit_intersection": ".000344454",
        "jupiter_tisserand_invariant": "3.201",
        "epoch_osculation": "2459049.5",
        "eccentricity": ".6158059186624955",
        "semi_major_axis": "2.448770174627767",
        "inclination": "5.227777017664491",
        "ascending_node_longitude": "287.7789600577528",
        "orbital_period": "1399.653283827103",
        "perihelion_distance": ".9408030076477956",
        "perihelion_argument": "323.7892495289794",
        "aphelion_distance": "3.956737341607738",
        "perihelion_time": "2459013.641741870904",
        "mean_anomaly": "9.222979058911841",
        "mean_motion": ".2572065554804002",
        "equinox": "J2000",
        "orbit_class": {
            "orbit_class_type": "APO",
            "orbit_class_description": "Near-Earth asteroid orbits which cross the Earth’s orbit similar to that of 1862 Apollo",
            "orbit_class_range": "a (semi-major axis) > 1.0 AU; q (perihelion) < 1.017 AU"
        }
    },
    "is_sentry_object": false
}